{
    "links": {
        "self": "http://www.neowsapp.com/rest/v1/neo/3838192?api_key=iIulBulltgU6a56xZRHN4H3l9WmuAYTsLGpBGhQ2"
    },
    "id": "3838192",
    "neo_reference_id": "3838192",
    "name": "(2019 CV2)",
    "designation": "2019 CV2",
    "nasa_jpl_url": "http://ssd.jpl.nasa.gov/sbdb.cgi?sstr=3838192",
    "absolute_magnitude_h": 21.4,
    "estimated_diameter": {
        "kilometers": {
            "estimated_diameter_min": 0.1394938229,
            "estimated_diameter_max": 0.3119176705
        },
        "meters": {
            "estimated_diameter_min": 139.4938229344,
            "estimated_diameter_max": 311.9176705226
        },
        "miles": {
            "estimated_diameter_min": 0.0866774163,
            "estimated_diameter_max": 0.1938165949
        },
        "feet": {
            "estimated_diameter_min": 457.6569140361,
            "estimated_diameter_max": 1023.3519701574
        }
    },
    "is_potentially_hazardous_asteroid": false,
    "close_approach_data": [
        {
            "close_approach_date": "1977-02-16",
            "close_approach_date_full": "1977-Feb-16 12:14",
            "epoch_date_close_approach": 224943240000,
            "relative_velocity": {
                "kilometers_per_second": "21.4163297529",
                "kilometers_per_hour": "77098.787110503",
                "miles_per_hour": "47906.1880243012"
            },
            "miss_distance": {
                "astronomical": "0.3287048065",
                "lunar": "127.8661697285",
                "kilometers": "49173538.911162155",
                "miles": "30555020.224281539"
            },
            "orbiting_body": "Earth"
        },
        {
            "close_approach_date": "1998-02-16",
            "close_approach_date_full": "1998-Feb-16 10:37",
            "epoch_date_close_approach": 887625420000,
            "relative_velocity": {
                "kilometers_per_second": "21.2577501907",
                "kilometers_per_hour": "76527.9006863573",
                "miles_per_hour": "47551.4614014757"
            },
            "miss_distance": {
                "astronomical": "0.309125489",
                "lunar": "120.249815221",
                "kilometers": "46244514.71710843",
                "miles": "28735008.985139134"
            },
            "orbiting_body": "Earth"
        },
        {
            "close_approach_date": "2009-04-13",
            "close_approach_date_full": "2009-Apr-13 21:42",
            "epoch_date_close_approach": 1239658920000,
            "relative_velocity": {
                "kilometers_per_second": "9.4703313877",
                "kilometers_per_hour": "34093.1929956323",
                "miles_per_hour": "21184.1842810917"
            },
            "miss_distance": {
                "astronomical": "1.6992816198",
                "lunar": "661.0205501022",
                "kilometers": "254208910.852229826",
                "miles": "157958092.5894945588"
            },
            "orbiting_body": "Juptr"
        },
        {
            "close_approach_date": "2019-02-10",
            "close_approach_date_full": "2019-Feb-10 05:10",
            "epoch_date_close_approach": 1549775400000,
            "relative_velocity": {
                "kilometers_per_second": "18.4287778797",
                "kilometers_per_hour": "66343.600366843",
                "miles_per_hour": "41223.3332390531"
            },
            "miss_distance": {
                "astronomical": "0.4552644948",
                "lunar": "177.0978884772",
                "kilometers": "68106598.708706076",
                "miles": "42319478.0573168088"
            },
            "orbiting_body": "Earth"
        },
        {
            "close_approach_date": "2021-10-23",
            "close_approach_date_full": "2021-Oct-23 00:54",
            "epoch_date_close_approach": 1634950440000,
            "relative_velocity": {
                "kilometers_per_second": "8.1192014072",
                "kilometers_per_hour": "29229.1250659847",
                "miles_per_hour": "18161.8416278059"
            },
            "miss_distance": {
                "astronomical": "1.9982741228",
                "lunar": "777.3286337692",
                "kilometers": "298937552.446998436",
                "miles": "185751181.6938169768"
            },
            "orbiting_body": "Juptr"
        }
    ],
    "orbital_data": {
        "orbit_id": "6",
        "orbit_determination_date": "2019-03-27 07:23:41",
        "first_observation_date": "2019-02-04",
        "last_observation_date": "2019-03-25",
        "data_arc_in_days": 49,
        "observations_used": 33,
        "orbit_uncertainty": "6",
        "minimum_orbit_intersection": ".278351",
        "jupiter_tisserand_invariant": "2.965",
        "epoch_osculation": "2459000.5",
        "eccentricity": ".5507180291682739",
        "semi_major_axis": "2.594868492149074",
        "inclination": "35.46390527444284",
        "ascending_node_longitude": "332.3972298466336",
        "orbital_period": "1526.762400068271",
        "perihelion_distance": "1.165827630201885",
        "perihelion_argument": "135.7285766807363",
        "aphelion_distance": "4.023909354096263",
        "perihelion_time": "2458470.031135472369",
        "mean_anomaly": "125.0808843742863",
        "mean_motion": ".2357930742752783",
        "equinox": "J2000",
        "orbit_class": {
            "orbit_class_type": "AMO",
            "orbit_class_description": "Near-Earth asteroid orbits similar to that of 1221 Amor",
            "orbit_class_range": "1.017 AU < q (perihelion) < 1.3 AU"
        }
    },
    "is_sentry_object": false
}